[
    {
        "Altitude(m)": 611967.1681168601,
        "Argument of Periapsis(deg)": 0.0,
        "Eccentricity": 0.0,
        "Inclination(deg)": 60.0,
        "Latitude(deg)": 59.14012879229955,
        "Longitude(deg)": -8.908100675910207,
        "Mean Anomaly(deg)": -261.8182,
        "RAAN(deg)": 345.0,
        "Satellite Name": "Test1 1524",
        "Satellite Number": 1524,
        "Semi-Major Axis(m)": 6980739.136638005,
        "Time(s)": 0
    },
    {
        "Altitude(m)": 611934.3685665398,
        "Argument of Periapsis(deg)": 0.00010418945913296404,
        "Eccentricity": 0.0,
        "Inclination(deg)": 60.0,
        "Latitude(deg)": 58.98649284324545,
        "Longitude(deg)": -7.784855019448099,
        "Mean Anomaly(deg)": -261.1980938545382,
        "RAAN(deg)": 344.99957995086027,
        "Satellite Name": "Test1 1524",
        "Satellite Number": 1524,
        "Semi-Major Axis(m)": 6980739.136638005,
        "Time(s)": 10
    },
    {
        "Altitude(m)": 611899.2643774943,
        "Argument of Periapsis(deg)": 0.0002083789182659281,
        "Eccentricity": 0.0,
        "Inclination(deg)": 60.0,
        "Latitude(deg)": 58.82247877812452,
        "Longitude(deg)": -6.672274547394334,
        "Mean Anomaly(deg)": -260.57798770907635,
        "RAAN(deg)": 344.99915990172053,
        "Satellite Name": "Test1 1524",
        "Satellite Number": 1524,
        "Semi-Major Axis(m)": 6980739.136638005,
        "Time(s)": 20
    },
    {
        "Altitude(m)": 611861.8757838181,
        "Argument of Periapsis(deg)": 0.00031256837739889213,
        "Eccentricity": 0.0,
        "Inclination(deg)": 60.0,
        "Latitude(deg)": 58.64824964452064,
        "Longitude(deg)": -5.570871058762448,
        "Mean Anomaly(deg)": -259.9578815636145,
        "RAAN(deg)": 344.9987398525808,
        "Satellite Name": "Test1 1524",
        "Satellite Number": 1524,
        "Semi-Major Axis(m)": 6980739.136638005,
        "Time(s)": 30
    },
    {
        "Altitude(m)": 611822.2243454346,
        "Argument of Periapsis(deg)": 0.0004167578365318562,
        "Eccentricity": 0.0,
        "Inclination(deg)": 60.0,
        "Latitude(deg)": 58.46397493908793,
        "Longitude(deg)": -4.481115604216736,
        "Mean Anomaly(deg)": -259.3377754181527,
        "RAAN(deg)": 344.99831980344106,
        "Satellite Name": "Test1 1524",
        "Satellite Number": 1524,
        "Semi-Major Axis(m)": 6980739.136638005,
        "Time(s)": 40
    },
    {
        "Altitude(m)": 611780.3329378929,
        "Argument of Periapsis(deg)": 0.0005209472956648203,
        "Eccentricity": 0.0,
        "Inclination(deg)": 60.0,
        "Latitude(deg)": 58.26982989103414,
        "Longitude(deg)": -3.4034392623286216,
        "Mean Anomaly(deg)": -258.71766927269084,
        "RAAN(deg)": 344.9978997543013,
        "Satellite Name": "Test1 1524",
        "Satellite Number": 1524,
        "Semi-Major Axis(m)": 6980739.136638005,
        "Time(s)": 50
    },
    {
        "Altitude(m)": 611736.225741565,
        "Argument of Periapsis(deg)": 0.0006251367547977843,
        "Eccentricity": 0.0,
        "Inclination(deg)": 60.0,
        "Latitude(deg)": 58.06599475206326,
        "Longitude(deg)": -2.338232692965906,
        "Mean Anomaly(deg)": -258.097563127229,
        "RAAN(deg)": 344.99747970516154,
        "Satellite Name": "Test1 1524",
        "Satellite Number": 1524,
        "Semi-Major Axis(m)": 6980739.136638005,
        "Time(s)": 60
    },
    {
        "Altitude(m)": 611689.9282301792,
        "Argument of Periapsis(deg)": 0.0007293262139307483,
        "Eccentricity": 0.0,
        "Inclination(deg)": 60.0,
        "Latitude(deg)": 57.85265409815671,
        "Longitude(deg)": -1.2858459604480201,
        "Mean Anomaly(deg)": -257.4774569817672,
        "RAAN(deg)": 344.99705965602186,
        "Satellite Name": "Test1 1524",
        "Satellite Number": 1524,
        "Semi-Major Axis(m)": 6980739.136638005,
        "Time(s)": 70
    },
    {
        "Altitude(m)": 611641.4671587773,
        "Argument of Periapsis(deg)": 0.0008335156730637124,
        "Eccentricity": 0.0,
        "Inclination(deg)": 60.0,
        "Latitude(deg)": 57.62999614803224,
        "Longitude(deg)": -0.24659011696184996,
        "Mean Anomaly(deg)": -256.8573508363054,
        "RAAN(deg)": 344.99663960688207,
        "Satellite Name": "Test1 1524",
        "Satellite Number": 1524,
        "Semi-Major Axis(m)": 6980739.136638005,
        "Time(s)": 80
    },
    {
        "Altitude(m)": 611590.8705510297,
        "Argument of Periapsis(deg)": 0.0009377051321966765,
        "Eccentricity": 0.0,
        "Inclination(deg)": 60.0,
        "Latitude(deg)": 57.3982121025577,
        "Longitude(deg)": 0.7792625034404859,
        "Mean Anomaly(deg)": -256.23724469084357,
        "RAAN(deg)": 344.99621955774234,
        "Satellite Name": "Test1 1524",
        "Satellite Number": 1524,
        "Semi-Major Axis(m)": 6980739.136638005,
        "Time(s)": 90
    },
    {
        "Altitude(m)": 611538.1676859586,
        "Argument of Periapsis(deg)": 0.0010418945913296407,
        "Eccentricity": 0.0,
        "Inclination(deg)": 60.0,
        "Latitude(deg)": 57.15749550880329,
        "Longitude(deg)": 1.7914777922742642,
        "Mean Anomaly(deg)": -255.61713854538166,
        "RAAN(deg)": 344.9957995086026,
        "Satellite Name": "Test1 1524",
        "Satellite Number": 1524,
        "Semi-Major Axis(m)": 6980739.136638005,
        "Time(s)": 100
    },
    {
        "Altitude(m)": 611483.3890840367,
        "Argument of Periapsis(deg)": 0.0011460840504626045,
        "Eccentricity": 0.0,
        "Inclination(deg)": 60.0,
        "Latitude(deg)": 56.908041651828846,
        "Longitude(deg)": 2.789857687916485,
        "Mean Anomaly(deg)": -254.99703239991987,
        "RAAN(deg)": 344.99537945946287,
        "Satellite Name": "Test1 1524",
        "Satellite Number": 1524,
        "Semi-Major Axis(m)": 6980739.136638005,
        "Time(s)": 110
    },
    {
        "Altitude(m)": 611426.5664927298,
        "Argument of Periapsis(deg)": 0.0012502735095955685,
        "Eccentricity": 0.0,
        "Inclination(deg)": 60.0,
        "Latitude(deg)": 56.650046976737585,
        "Longitude(deg)": 3.7742393617413525,
        "Mean Anomaly(deg)": -254.37692625445803,
        "RAAN(deg)": 344.99495941032313,
        "Satellite Name": "Test1 1524",
        "Satellite Number": 1524,
        "Semi-Major Axis(m)": 6980739.136638005,
        "Time(s)": 120
    },
    {
        "Altitude(m)": 611367.732871401,
        "Argument of Periapsis(deg)": 0.0013544629687285324,
        "Eccentricity": 0.0,
        "Inclination(deg)": 60.0,
        "Latitude(deg)": 56.383708542960555,
        "Longitude(deg)": 4.744494280954125,
        "Mean Anomaly(deg)": -253.7568201089962,
        "RAAN(deg)": 344.99453936118334,
        "Satellite Name": "Test1 1524",
        "Satellite Number": 1524,
        "Semi-Major Axis(m)": 6980739.136638005,
        "Time(s)": 130
    },
    {
        "Altitude(m)": 611306.9223756468,
        "Argument of Periapsis(deg)": 0.0014586524278614966,
        "Eccentricity": 0.0,
        "Inclination(deg)": 60.0,
        "Latitude(deg)": 56.109223512212516,
        "Longitude(deg)": 5.700525659114682,
        "Mean Anomaly(deg)": -253.13671396353436,
        "RAAN(deg)": 344.9941193120436,
        "Satellite Name": "Test1 1524",
        "Satellite Number": 1524,
        "Semi-Major Axis(m)": 6980739.136638005,
        "Time(s)": 140
    },
    {
        "Altitude(m)": 611244.1703410732,
        "Argument of Periapsis(deg)": 0.0015628418869944607,
        "Eccentricity": 0.0,
        "Inclination(deg)": 60.0,
        "Latitude(deg)": 55.82678867107599,
        "Longitude(deg)": 6.64226734278763,
        "Mean Anomaly(deg)": -252.51660781807257,
        "RAAN(deg)": 344.99369926290393,
        "Satellite Name": "Test1 1524",
        "Satellite Number": 1524,
        "Semi-Major Axis(m)": 6980739.136638005,
        "Time(s)": 150
    },
    {
        "Altitude(m)": 611179.5132664744,
        "Argument of Periapsis(deg)": 0.0016670313461274247,
        "Eccentricity": 0.0,
        "Inclination(deg)": 60.0,
        "Latitude(deg)": 55.53659998871084,
        "Longitude(deg)": 7.569682642735198,
        "Mean Anomaly(deg)": -251.89650167261073,
        "RAAN(deg)": 344.99327921376414,
        "Satellite Name": "Test1 1524",
        "Satellite Number": 1524,
        "Semi-Major Axis(m)": 6980739.136638005,
        "Time(s)": 160
    },
    {
        "Altitude(m)": 611112.9887964454,
        "Argument of Periapsis(deg)": 0.0017712208052603888,
        "Eccentricity": 0.0,
        "Inclination(deg)": 60.0,
        "Latitude(deg)": 55.238852209780354,
        "Longitude(deg)": 8.482761616475793,
        "Mean Anomaly(deg)": -251.2763955271489,
        "RAAN(deg)": 344.9928591646244,
        "Satellite Name": "Test1 1524",
        "Satellite Number": 1524,
        "Semi-Major Axis(m)": 6980739.136638005,
        "Time(s)": 170
    },
    {
        "Altitude(m)": 611044.6357034481,
        "Argument of Periapsis(deg)": 0.001875410264393353,
        "Eccentricity": 0.0,
        "Inclination(deg)": 60.0,
        "Latitude(deg)": 54.93373848233057,
        "Longitude(deg)": 9.381519845948747,
        "Mean Anomaly(deg)": -250.65628938168706,
        "RAAN(deg)": 344.9924391154847,
        "Satellite Name": "Test1 1524",
        "Satellite Number": 1524,
        "Semi-Major Axis(m)": 6980739.136638005,
        "Time(s)": 180
    },
    {
        "Altitude(m)": 610974.4938693307,
        "Argument of Periapsis(deg)": 0.0019795997235263173,
        "Eccentricity": 0.0,
        "Inclination(deg)": 60.0,
        "Latitude(deg)": 54.6214500200359,
        "Longitude(deg)": 10.265997213625955,
        "Mean Anomaly(deg)": -250.03618323622527,
        "RAAN(deg)": 344.99201906634494,
        "Satellite Name": "Test1 1524",
        "Satellite Number": 1524,
        "Semi-Major Axis(m)": 6980739.136638005,
        "Time(s)": 190
    }
]